start=new Date('2023-04-21T00:00:00.000Z').valueOf();
sats=[{"LAUNCH_DATE":"2022-08-19","SEMIMAJOR_AXIS":"6917.886","PERIOD":"95.438","CENTER_NAME":"EARTH","PERIAPSIS":"538.882","REF_FRAME":"TEME","TLE_LINE2":"2 53544  53.2166 115.4725 0001257  90.4752 269.6384 15.08838136 37868","ECCENTRICITY":"0.00012570","CLASSIFICATION_TYPE":"U","NORAD_CAT_ID":"53544","MEAN_ANOMALY":"269.6384","ELEMENT_SET_NO":"999","INCLINATION":"53.2166","BSTAR":"-0.00004466000000","MEAN_ELEMENT_THEORY":"SGP4","MEAN_MOTION_DOT":"-0.00000999","DECAY_DATE":null,"EPHEMERIS_TYPE":"0","MEAN_MOTION_DDOT":"0.0000000000000","TLE_LINE1":"1 53544U 22101T   23110.74269057 -.00000999  00000-0 -44660-4 0  9997","FILE":"3891109","GP_ID":"230462296","MEAN_MOTION":"15.08838136","OBJECT_TYPE":"PAYLOAD","OBJECT_ID":"2022-101T","TIME_SYSTEM":"UTC","REV_AT_EPOCH":"3786","ARG_OF_PERICENTER":"90.4752","RA_OF_ASC_NODE":"115.4725","APOAPSIS":"540.621","EPOCH":"2023-04-20T17:49:28.465248","COUNTRY_CODE":"US","SITE":"AFETR","RCS_SIZE":"LARGE","OBJECT_NAME":"STARLINK-4303"},{"MEAN_MOTION_DDOT":"0.0000000000000","TLE_LINE1":"1 53545U 22101U   23110.29004257  .00000961  00000-0  78424-4 0  9999","FILE":"3890827","GP_ID":"230429521","MEAN_MOTION":"15.08846196","OBJECT_ID":"2022-101U","OBJECT_TYPE":"PAYLOAD","TIME_SYSTEM":"UTC","REV_AT_EPOCH":"3781","ARG_OF_PERICENTER":"89.2538","RA_OF_ASC_NODE":"117.5054","APOAPSIS":"540.805","EPOCH":"2023-04-20T06:57:39.678048","COUNTRY_CODE":"US","SITE":"AFETR","RCS_SIZE":"LARGE","OBJECT_NAME":"STARLINK-4475","LAUNCH_DATE":"2022-08-19","SEMIMAJOR_AXIS":"6917.861","PERIOD":"95.437","CENTER_NAME":"EARTH","PERIAPSIS":"538.648","REF_FRAME":"TEME","TLE_LINE2":"2 53545  53.2167 117.5054 0001559  89.2538 270.8633 15.08846196 37812","ECCENTRICITY":"0.00015590","CLASSIFICATION_TYPE":"U","NORAD_CAT_ID":"53545","MEAN_ANOMALY":"270.8633","ELEMENT_SET_NO":"999","INCLINATION":"53.2167","BSTAR":"0.00007842400000","MEAN_ELEMENT_THEORY":"SGP4","MEAN_MOTION_DOT":"0.00000961","DECAY_DATE":null,"EPHEMERIS_TYPE":"0"},{"NORAD_CAT_ID":"53546","CLASSIFICATION_TYPE":"U","INCLINATION":"53.2185","ELEMENT_SET_NO":"999","MEAN_ANOMALY":"258.4628","DECAY_DATE":null,"MEAN_MOTION_DOT":"0.00000765","BSTAR":"0.00006612700000","MEAN_ELEMENT_THEORY":"SGP4","EPHEMERIS_TYPE":"0","LAUNCH_DATE":"2022-08-19","CENTER_NAME":"EARTH","PERIOD":"95.438","SEMIMAJOR_AXIS":"6917.894","TLE_LINE2":"2 53546  53.2185 105.2350 0001341 101.6515 258.4628 15.08835602 37332","REF_FRAME":"TEME","PERIAPSIS":"538.831","ECCENTRICITY":"0.00013410","EPOCH":"2023-04-20T16:36:31.955328","APOAPSIS":"540.687","COUNTRY_CODE":"US","RCS_SIZE":"LARGE","SITE":"AFETR","OBJECT_NAME":"STARLINK-4477","TLE_LINE1":"1 53546U 22101V   23110.69203652  .00000765  00000-0  66127-4 0  9993","MEAN_MOTION_DDOT":"0.0000000000000","OBJECT_ID":"2022-101V","OBJECT_TYPE":"PAYLOAD","MEAN_MOTION":"15.08835602","GP_ID":"230461296","FILE":"3891109","TIME_SYSTEM":"UTC","RA_OF_ASC_NODE":"105.2350","ARG_OF_PERICENTER":"101.6515","REV_AT_EPOCH":"3733"},{"SITE":"AFETR","RCS_SIZE":"LARGE","OBJECT_NAME":"STARLINK-4474","EPOCH":"2023-04-20T17:54:46.379232","APOAPSIS":"540.585","COUNTRY_CODE":"US","TIME_SYSTEM":"UTC","REV_AT_EPOCH":"3786","ARG_OF_PERICENTER":"81.1682","RA_OF_ASC_NODE":"115.4551","MEAN_MOTION_DDOT":"0.0000000000000","TLE_LINE1":"1 53547U 22101W   23110.74637013  .00001416  00000-0  10704-3 0  9995","FILE":"3891109","GP_ID":"230461546","MEAN_MOTION":"15.08838677","OBJECT_TYPE":"PAYLOAD","OBJECT_ID":"2022-101W","BSTAR":"0.00010704000000","MEAN_ELEMENT_THEORY":"SGP4","MEAN_MOTION_DOT":"0.00001416","DECAY_DATE":null,"EPHEMERIS_TYPE":"0","CLASSIFICATION_TYPE":"U","NORAD_CAT_ID":"53547","MEAN_ANOMALY":"278.9447","ELEMENT_SET_NO":"999","INCLINATION":"53.2159","REF_FRAME":"TEME","PERIAPSIS":"538.914","TLE_LINE2":"2 53547  53.2159 115.4551 0001208  81.1682 278.9447 15.08838677 37868","ECCENTRICITY":"0.00012080","LAUNCH_DATE":"2022-08-19","SEMIMAJOR_AXIS":"6917.884","PERIOD":"95.438","CENTER_NAME":"EARTH"},{"BSTAR":"-0.00006003900000","MEAN_ELEMENT_THEORY":"SGP4","DECAY_DATE":null,"MEAN_MOTION_DOT":"-0.00001243","EPHEMERIS_TYPE":"0","CLASSIFICATION_TYPE":"U","NORAD_CAT_ID":"53548","MEAN_ANOMALY":"272.0503","INCLINATION":"53.2152","ELEMENT_SET_NO":"999","TLE_LINE2":"2 53548  53.2152 115.5196 0001150  88.0620 272.0503 15.08829789 37190","REF_FRAME":"TEME","PERIAPSIS":"538.981","ECCENTRICITY":"0.00011500","LAUNCH_DATE":"2022-08-19","PERIOD":"95.438","SEMIMAJOR_AXIS":"6917.912","CENTER_NAME":"EARTH","SITE":"AFETR","RCS_SIZE":"LARGE","OBJECT_NAME":"STARLINK-4513","APOAPSIS":"540.572","EPOCH":"2023-04-20T17:33:34.805376","COUNTRY_CODE":"US","TIME_SYSTEM":"UTC","REV_AT_EPOCH":"3719","RA_OF_ASC_NODE":"115.5196","ARG_OF_PERICENTER":"88.0620","TLE_LINE1":"1 53548U 22101X   23110.73165284 -.00001243  00000-0 -60039-4 0  9998","MEAN_MOTION_DDOT":"0.0000000000000","GP_ID":"230462796","FILE":"3891109","OBJECT_TYPE":"PAYLOAD","OBJECT_ID":"2022-101X","MEAN_MOTION":"15.08829789"},{"ECCENTRICITY":"0.00011810","PERIAPSIS":"538.941","REF_FRAME":"TEME","TLE_LINE2":"2 53549  53.2156 115.4893 0001181  92.9333 267.1794 15.08835788 37853","CENTER_NAME":"EARTH","SEMIMAJOR_AXIS":"6917.893","PERIOD":"95.438","LAUNCH_DATE":"2022-08-19","EPHEMERIS_TYPE":"0","MEAN_MOTION_DOT":"-0.00000168","DECAY_DATE":null,"MEAN_ELEMENT_THEORY":"SGP4","BSTAR":"0.00000750300000","ELEMENT_SET_NO":"999","INCLINATION":"53.2156","MEAN_ANOMALY":"267.1794","NORAD_CAT_ID":"53549","CLASSIFICATION_TYPE":"U","ARG_OF_PERICENTER":"92.9333","RA_OF_ASC_NODE":"115.4893","REV_AT_EPOCH":"3785","TIME_SYSTEM":"UTC","MEAN_MOTION":"15.08835788","OBJECT_TYPE":"PAYLOAD","OBJECT_ID":"2022-101Y","FILE":"3891109","GP_ID":"230463047","MEAN_MOTION_DDOT":"0.0000000000000","TLE_LINE1":"1 53549U 22101Y   23110.73900978 -.00000168  00000-0  75030-5 0  9998","OBJECT_NAME":"STARLINK-4516","RCS_SIZE":"LARGE","SITE":"AFETR","COUNTRY_CODE":"US","EPOCH":"2023-04-20T17:44:10.444992","APOAPSIS":"540.575"},{"COUNTRY_CODE":"US","EPOCH":"2023-04-20T17:28:16.515552","APOAPSIS":"540.787","OBJECT_NAME":"STARLINK-4518","SITE":"AFETR","RCS_SIZE":"LARGE","GP_ID":"230461796","FILE":"3891109","OBJECT_ID":"2022-101Z","OBJECT_TYPE":"PAYLOAD","MEAN_MOTION":"15.08837929","TLE_LINE1":"1 53550U 22101Z   23110.72796893  .00000108  00000-0  24894-4 0  9992","MEAN_MOTION_DDOT":"0.0000000000000","REV_AT_EPOCH":"3785","RA_OF_ASC_NODE":"115.5354","ARG_OF_PERICENTER":"85.1920","TIME_SYSTEM":"UTC","MEAN_ANOMALY":"274.9243","INCLINATION":"53.2148","ELEMENT_SET_NO":"999","CLASSIFICATION_TYPE":"U","NORAD_CAT_ID":"53550","EPHEMERIS_TYPE":"0","MEAN_ELEMENT_THEORY":"SGP4","BSTAR":"0.00002489400000","DECAY_DATE":null,"MEAN_MOTION_DOT":"0.00000108","PERIOD":"95.438","SEMIMAJOR_AXIS":"6917.887","CENTER_NAME":"EARTH","LAUNCH_DATE":"2022-08-19","ECCENTRICITY":"0.00014970","TLE_LINE2":"2 53550  53.2148 115.5354 0001497  85.1920 274.9243 15.08837929 37859","PERIAPSIS":"538.716","REF_FRAME":"TEME"},{"TIME_SYSTEM":"UTC","ARG_OF_PERICENTER":"75.3777","RA_OF_ASC_NODE":"115.5078","REV_AT_EPOCH":"3785","MEAN_MOTION_DDOT":"0.0000000000000","TLE_LINE1":"1 53551U 22101AA  23110.73532866 -.00000255  00000-0  20488-5 0  9992","MEAN_MOTION":"15.08837044","OBJECT_ID":"2022-101AA","OBJECT_TYPE":"PAYLOAD","FILE":"3891109","GP_ID":"230462046","RCS_SIZE":"LARGE","SITE":"AFETR","OBJECT_NAME":"STARLINK-4514","EPOCH":"2023-04-20T17:38:52.396224","APOAPSIS":"540.589","COUNTRY_CODE":"US","PERIAPSIS":"538.919","REF_FRAME":"TEME","TLE_LINE2":"2 53551  53.2173 115.5078 0001207  75.3777 284.7348 15.08837044 37854","ECCENTRICITY":"0.00012070","LAUNCH_DATE":"2022-08-19","CENTER_NAME":"EARTH","SEMIMAJOR_AXIS":"6917.889","PERIOD":"95.438","MEAN_MOTION_DOT":"-0.00000255","DECAY_DATE":null,"MEAN_ELEMENT_THEORY":"SGP4","BSTAR":"0.00000204880000","EPHEMERIS_TYPE":"0","NORAD_CAT_ID":"53551","CLASSIFICATION_TYPE":"U","ELEMENT_SET_NO":"999","INCLINATION":"53.2173","MEAN_ANOMALY":"284.7348"},{"TIME_SYSTEM":"UTC","ARG_OF_PERICENTER":"86.2044","RA_OF_ASC_NODE":"115.5681","REV_AT_EPOCH":"3784","MEAN_MOTION_DDOT":"0.0000000000000","TLE_LINE1":"1 53552U 22101AB  23110.72061182 -.00000026  00000-0  16425-4 0  9991","MEAN_MOTION":"15.08835602","OBJECT_ID":"2022-101AB","OBJECT_TYPE":"PAYLOAD","FILE":"3891109","GP_ID":"230462297","RCS_SIZE":"LARGE","SITE":"AFETR","OBJECT_NAME":"STARLINK-4495","APOAPSIS":"540.613","EPOCH":"2023-04-20T17:17:40.861248","COUNTRY_CODE":"US","REF_FRAME":"TEME","PERIAPSIS":"538.904","TLE_LINE2":"2 53552  53.2153 115.5681 0001235  86.2044 273.9089 15.08835602 37841","ECCENTRICITY":"0.00012350","LAUNCH_DATE":"2022-08-19","CENTER_NAME":"EARTH","SEMIMAJOR_AXIS":"6917.894","PERIOD":"95.438","MEAN_MOTION_DOT":"-0.00000026","DECAY_DATE":null,"BSTAR":"0.00001642500000","MEAN_ELEMENT_THEORY":"SGP4","EPHEMERIS_TYPE":"0","NORAD_CAT_ID":"53552","CLASSIFICATION_TYPE":"U","ELEMENT_SET_NO":"999","INCLINATION":"53.2153","MEAN_ANOMALY":"273.9089"},{"FILE":"3891109","GP_ID":"230462548","MEAN_MOTION":"15.08833255","OBJECT_TYPE":"PAYLOAD","OBJECT_ID":"2022-101AC","MEAN_MOTION_DDOT":"0.0000000000000","TLE_LINE1":"1 53553U 22101AC  23110.71323545  .00000044  00000-0  20879-4 0  9992","REV_AT_EPOCH":"3785","ARG_OF_PERICENTER":"97.3283","RA_OF_ASC_NODE":"115.4783","TIME_SYSTEM":"UTC","COUNTRY_CODE":"US","APOAPSIS":"540.714","EPOCH":"2023-04-20T17:07:03.542880","OBJECT_NAME":"STARLINK-4501","SITE":"AFETR","RCS_SIZE":"LARGE","SEMIMAJOR_AXIS":"6917.901","PERIOD":"95.438","CENTER_NAME":"EARTH","LAUNCH_DATE":"2022-08-19","ECCENTRICITY":"0.00013710","PERIAPSIS":"538.818","REF_FRAME":"TEME","TLE_LINE2":"2 53553  53.2164 115.4783 0001371  97.3283 262.7865 15.08833255 37856","MEAN_ANOMALY":"262.7865","ELEMENT_SET_NO":"999","INCLINATION":"53.2164","CLASSIFICATION_TYPE":"U","NORAD_CAT_ID":"53553","EPHEMERIS_TYPE":"0","MEAN_ELEMENT_THEORY":"SGP4","BSTAR":"0.00002087900000","MEAN_MOTION_DOT":"0.00000044","DECAY_DATE":null}];
